ALOS (DAICHI)           
1 28931U 06002A   25158.84122319  .00001348  00000+0  23987-3 0  9999
2 28931  98.0841 112.1060 0002292  83.3409 276.8057 14.68707932 33129
H-2A R/B                
1 28932U 06002B   25158.88600472  .00007233  00000+0  42045-3 0  9990
2 28932  98.2109 279.2448 0059824  93.1763 267.6312 15.10895814 52879
RESURS-DK 1             
1 29228U 06021A   25158.74622247  .00001887  00000+0  11915-3 0  9990
2 29228  69.9325 227.1400 0005810 214.5601 145.5187 15.10958875 45973
GENESIS 1               
1 29252U 06029A   25159.01575085  .00289156  40833-4  62563-3 0  9998
2 29252  64.4964   9.6679 0026511 277.8109  82.0043 15.97467052 46071
CZ-4B R/B               
1 29507U 06046C   25159.08207300  .00003541  00000+0  19698-3 0  9999
2 29507  97.5955 199.7220 0036939 134.9545 225.4692 15.13746822 18509
CZ-2C R/B               
1 31114U 07010B   25159.09814264  .00000080  00000+0  55700-4 0  9992
2 31114  98.3784 281.4142 0059286  13.9151 346.3643 14.20127258940759
COSMO-SKYMED 1          
1 31598U 07023A   25159.14248811  .00000676  00000+0  74133-4 0  9999
2 31598  97.8871 343.5851 0001448 109.3577 250.7797 14.90967848973941
GENESIS 2               
1 31789U 07028A   25158.87616228  .00093447  00000+0  53022-3 0  9997
2 31789  64.4758  63.7451 0021155 305.3593  54.5582 15.78212005992642
COSMOS 2428             
1 31792U 07029A   25159.12414284  .00000239  00000+0  15400-3 0  9994
2 31792  70.9377  59.6999 0005572 274.2352  85.8132 14.12854707925392
SL-16 R/B               
1 31793U 07029B   25159.10806536  .00000016  00000+0  32918-4 0  9995
2 31793  70.9773  29.5500 0002002 280.1698 191.1670 14.14788818926627
KORONAS-FOTON           
1 33504U 09003A   25158.85138972  .00007813  00000+0  21664-3 0  9991
2 33504  82.4328 199.9372 0013477  67.4981 292.7688 15.36665248903450
CZ-2C R/B               
1 37731U 11030B   25158.90616193  .00000894  00000+0  12170-3 0  9996
2 37731  97.8144 117.6348 0053934 162.8997 263.5575 14.80195725749423
H-2A R/B                
1 38341U 12025E   25158.92311694  .00002568  00000+0  24817-3 0  9990
2 38341  98.4371 100.2645 0047620 129.2600 231.2857 14.92981769707198
SHIJIAN-16 (SJ-16)      
1 39358U 13057A   25159.13526999  .00000829  00000+0  85818-4 0  9992
2 39358  74.9718 344.4003 0016391  59.0130 301.2665 14.91351719630634
SL-4 R/B                
1 39679U 14021B   25158.67982122  .00010040  00000+0  27712-3 0  9996
2 39679  51.6081 230.2479 0112729 186.5210 173.4310 15.31550612614031
ALOS-2                  
1 39766U 14029A   25159.19714210  .00001471  00000+0  20377-3 0  9998
2 39766  97.9214 256.7280 0001593  96.2886 263.8507 14.79473085596315
YAOGAN-29               
1 41038U 15069A   25159.14737603  .00000417  00000+0  58566-4 0  9995
2 41038  98.0342 181.5242 0002463 125.8993 234.2449 14.82635416515198
ASTRO-H (HITOMI)        
1 41337U 16012A   25159.17741710  .00002687  00000+0  16440-3 0  9998
2 41337  31.0009 325.0782 0009965  95.6645 264.5129 15.08021592510732
HXMT (HUIYAN)           
1 42758U 17034A   25159.13294946  .00003360  00000+0  19278-3 0  9992
2 42758  43.0142  98.4320 0036168 301.4958  58.2357 15.13777401440905
CZ-2C R/B               
1 43521U 18054D   25158.95592563  .00031892  00000+0  49959-3 0  9999
2 43521  35.1401 347.5828 0032279 165.0849 195.0836 15.52092354385716
SAOCOM 1A               
1 43641U 18076A   25159.12760291  .00000380  00000+0  54293-4 0  9997
2 43641  97.8887 346.2395 0001456  91.1828 268.9552 14.82158114360690
H-2A R/B                
1 43682U 18084L   25158.87670528  .00010863  00000+0  36711-3 0  9996
2 43682  98.8745 315.3813 0031735 247.7914 111.9955 15.30408346363617
SAOCOM 1B               
1 46265U 20059A   25159.15883017  .00000400  00000+0  56865-4 0  9991
2 46265  97.8887 345.3733 0001378  92.0888 268.0483 14.82154783258092
CSS (TIANHE)            
1 48274U 21035A   25159.15890521  .00024420  00000+0  31408-3 0  9999
2 48274  41.4645  75.4357 0004798  28.2503 331.8594 15.58491085234749
COSMOS 2550             
1 48865U 21056A   25159.12387244  .00004986  00000+0  15728-3 0  9990
2 48865  67.1407 151.5159 0008338 269.3434  90.6765 15.33831633221361
CZ-2C R/B               
1 52794U 22058K   25158.51220691  .00017089  00000+0  40952-3 0  9998
2 52794  50.1938 275.8677 0056232 136.7817 223.7581 15.39843126167563
GSLV R/B                
1 54149U 22138AN  25158.74640528  .00002578  00000+0  23314-3 0  9993
2 54149  87.3792 258.4234 0024714  72.3199 288.0727 14.94801161142835
XRISM                   
1 57800U 23137A   25158.71424770  .00003878  00000+0  23971-3 0  9999
2 57800  31.0020 257.0220 0008094 157.4457 202.6537 15.08054907 96201
ACS3                    
1 59588U 24077B   25158.89073189  .00006354  00000+0  62496-2 0  9997
2 59588  97.4771 155.1985 0059778  84.1283 276.6684 13.78212147 56217
